<?xml version="1.0" encoding="UTF-8"?>
<kml xmlns="http://www.opengis.net/kml/2.2" xmlns:gx="http://www.google.com/kml/ext/2.2" xmlns:kml="http://www.opengis.net/kml/2.2" xmlns:atom="http://www.w3.org/2005/Atom">
<Document>
	<name>عوالى الفرسان</name>
	<StyleMap id="PolyStyle00140">
		<Pair>
			<key>normal</key>
			<styleUrl>#PolyStyle00230</styleUrl>
		</Pair>
		<Pair>
			<key>highlight</key>
			<styleUrl>#PolyStyle002110</styleUrl>
		</Pair>
	</StyleMap>
	<Style id="PolyStyle002110">
		<LabelStyle>
			<color>00000000</color>
			<scale>0</scale>
		</LabelStyle>
		<LineStyle>
			<width>2</width>
		</LineStyle>
		<PolyStyle>
			<color>b3c5881b</color>
		</PolyStyle>
	</Style>
	<Style id="PolyStyle00230">
		<LabelStyle>
			<color>00000000</color>
			<scale>0</scale>
		</LabelStyle>
		<LineStyle>
			<width>2</width>
		</LineStyle>
		<PolyStyle>
			<color>b3c5881b</color>
		</PolyStyle>
	</Style>
	<Placemark id="ID_00000">
		<name>عوالى الفرسان</name>
		<visibility>0</visibility>
		<Snippet maxLines="0"></Snippet>
		<description><![CDATA[<html xmlns:fo="http://www.w3.org/1999/XSL/Format" xmlns:msxsl="urn:schemas-microsoft-com:xslt">

<head>

<META http-equiv="Content-Type" content="text/html">

<meta http-equiv="content-type" content="text/html; charset=UTF-8">

</head>

<body style="margin:0px 0px 0px 0px;overflow:auto;background:#FFFFFF;">

<table style="font-family:Arial,Verdana,Times;font-size:12px;text-align:left;width:100%;border-collapse:collapse;padding:3px 3px 3px 3px">

<tr style="text-align:center;font-weight:bold;background:#9CBCE2">

<td>محافظة</td>

</tr>

<tr>

<td>

<table style="font-family:Arial,Verdana,Times;font-size:12px;text-align:left;width:100%;border-spacing:0px; padding:3px 3px 3px 3px">

<tr>

<td>mOHProjectID</td>

<td>8737</td>

</tr>

<tr bgcolor="#D4E4F3">

<td>mOHPlanID</td>

<td>P0101-005</td>

</tr>

<tr>

<td>tempRegion</td>

<td>الرياض</td>

</tr>

<tr bgcolor="#D4E4F3">

<td>adminBoundID</td>

<td>الرياض</td>

</tr>

<tr>

<td>tempClass</td>

<td>الفئة أ</td>

</tr>

<tr bgcolor="#D4E4F3">

<td>adminBoundName</td>

<td>محافظة</td>

</tr>

<tr>

<td>mOHProjectName</td>

<td>مشروع الأصيل</td>

</tr>

<tr bgcolor="#D4E4F3">

<td>projectSubType</td>

<td>تنفيذ</td>

</tr>

<tr>

<td>mOHProjectType</td>

<td>تصميم بسيط</td>

</tr>

<tr bgcolor="#D4E4F3">

<td>mOHProjectClass</td>

<td>مشاريع تطوير الأراضى الوزارية</td>

</tr>

<tr>

<td>projectDesignStatus</td>

<td>مكتمل</td>

</tr>

<tr bgcolor="#D4E4F3">

<td>designStartDate</td>

<td>2019-7-9</td>

</tr>

<tr>

<td>designEndDate</td>

<td>لا يوجد</td>

</tr>

<tr bgcolor="#D4E4F3">

<td>projectimplementStatus</td>

<td>جاري أعمال الترسية</td>

</tr>

<tr>

<td>implementStartDate</td>

<td>لا يوجد</td>

</tr>

<tr bgcolor="#D4E4F3">

<td>implementEndDate</td>

<td>لا يوجد</td>

</tr>

<tr>

<td>areaM</td>

<td>5,296,926.09</td>

</tr>

<tr bgcolor="#D4E4F3">

<td>implementProjectType</td>

<td>بنية تحتية بسيطة</td>

</tr>

<tr>

<td>projectstageCount</td>

<td>لا يوجد</td>

</tr>

<tr bgcolor="#D4E4F3">

<td>tempStageField</td>

<td>لا يوجد</td>

</tr>

<tr>

<td>firstStageApprovalDate</td>

<td>لا يوجد</td>

</tr>

</table>

</td>

</tr>

</table>

</body>

</html>]]></description>
		<styleUrl>#PolyStyle00140</styleUrl>
		<MultiGeometry>
			<Polygon>
				<outerBoundaryIs>
					<LinearRing>
						<coordinates>
							46.82337111727927,24.94581341940016,0 46.82348565247796,24.94587874298984,0 46.82360216397037,24.94594097141466,0 46.82392142522234,24.94610224388759,0 46.82424392040933,24.94625797750957,0 46.82456955969982,24.9464082537521,0 46.82489834309379,24.94655299118466,0 46.82523009092824,24.9466920269262,0 46.82556462354002,24.94682544244635,0 46.82590185109768,24.94695307486289,0 46.82624168376965,24.94707492419406,0 46.82658394189295,24.9471909904569,0 46.8269285356359,24.94730119221783,0 46.82727546499864,24.94740552949273,0 46.82762437065506,24.94750383939675,0 46.8279753424365,24.94759628484385,0 46.82832811084861,24.9476827029481,0 46.82868267589118,24.94776301227228,0 46.82903885790137,24.94783737572766,0 46.82939638738442,24.94790554897643,0 46.82975535417197,24.94796769492773,0 46.83011557860095,24.94802365069203,0 46.83047688100821,24.94807341627761,0 46.83083908173072,24.9481170731413,0 46.83120218076859,24.94815453984045,0 46.83154542703863,24.94819111058566,0 46.83188777499343,24.94823395291482,0 46.83222904496985,24.94828306682142,0 46.83256914713642,24.94833853374709,0 46.8329079018301,24.94840027223414,0 46.83324521921926,24.94846828227312,0 46.83358091964094,24.94854248240443,0 46.83391491326354,24.94862287261713,0 46.83424702042414,24.94870937144988,0 46.83457715129105,24.94880206033891,0 46.83490503636973,24.94890077637246,0 46.83523067566023,24.94900560098476,0 46.83555397933099,24.94911637126297,0 46.83587458805587,24.94923308719092,0 46.83619259166644,24.94935574875183,0 46.83650772066816,24.94948427447935,0 46.8368199750609,24.94961850145837,0 46.83712908535016,24.94975859256699,0 46.83743496170437,24.9499043034405,0 46.83773751429207,24.95005563405892,0 46.83803665328172,24.95021250295369,0 46.83833210917867,24.95037491010358,0 46.83862397181447,24.95054277403898,0 46.83891188186303,24.95071593184209,0 46.83919592915588,24.95089438349084,0 46.83947584419838,24.95107804751465,0 46.8397516269906,24.95126692389032,0 46.84002300803794,24.95146076825232,0 46.84029007717194,24.95165966202424,0 46.84055256489795,24.95186336084096,0 46.84081047121603,24.95207194612535,0 46.84106361646306,24.9522851735128,0 46.84131182097606,24.95250312442568,0 46.84155517458651,24.9527255544999,0 46.84179349763144,24.95295246371123,0 46.84202661044768,24.95318377058884,0 46.84225442320371,24.95341923077056,0 46.84247702573109,24.95365892567811,0 46.84269405870375,24.95390269239552,0 46.84290570178469,24.95415036800818,0 46.84311159564777,24.95440195249236,0 46.84331191995615,24.95465728293404,0 46.84350631538365,24.95491627786509,0 46.84369496159329,24.95517877437287,0 46.84387767892208,24.95544469099059,0 46.84405428770697,24.95571394625168,0 46.84422487777941,24.95598637724599,0 46.84438926947642,24.95626198395232,0 46.84454746279796,24.95654052201807,0 46.84469927808094,24.95682190997971,0 46.84484480515696,24.95710606637428,0 46.84498395419446,24.95739282829618,0 46.84511654553043,24.95768219572708,0 46.84524266899629,24.95797384287732,0 46.84536214492912,24.95826776973072,0 46.84547497332883,24.95856389482855,0 46.84558115419539,24.95886205527026,0 46.84568068752888,24.95916200671489,0 46.84577330383464,24.95946383059139,0 46.8458591827758,24.95976728256085,0 46.84593823452082,24.96007228116992,0 46.84601045906965,24.96037866352445,0 46.84607567675926,24.96068626673197,0 46.84613406725276,24.96099509078348,0 46.84618545088696,24.96130489134772,0 46.84622982766206,24.96161550553661,0 46.84626728740941,24.9619269333439,0 46.84629765046597,24.96223901188324,0 46.84632100666342,24.96255157827015,0 46.84633735600155,24.96286446962188,0 46.84634669848049,24.96317768593564,0 46.84634894426874,24.96349090145227,0 46.84634418319771,24.96380419761097,0 46.84633232543593,24.96411724865562,0 46.84631346081499,24.96443005458841,0 46.84628947579689,24.96482991730194,0 46.84627240780654,24.96523010446858,0 46.84626243650685,24.96563053464707,0 46.8462595618979,24.96603096352264,0 46.84626360431676,24.96643147253254,0 46.84627474342622,24.96683181736502,0 46.84629297922653,24.96723191658485,0 46.84631813205446,24.96763177019457,0 46.8463503815732,24.968031215324,0 46.84638963795108,24.96843008910524,0 46.84643590118824,24.96882831010844,0 46.84648908145304,24.96922587833953,0 46.84654935840857,24.96962263093475,0 46.84661646256036,24.97001848646719,0 46.84669066340281,24.97041320064152,0 46.84677169144143,24.97080693633736,0 46.84637607339027,24.97094293162104,0 46.84597802988793,24.97107298206005,0 46.84557774059728,24.97119708767327,0 46.8451752055185,24.97131524847881,0 46.84477051448301,24.97142730162581,0 46.8443639369854,24.9715334099986,0 46.84395547302568,24.97163332931136,0 46.84354521243548,24.97172722244648,0 46.84313333487766,24.97181492655054,0 46.84271993018395,24.97189644163662,0 46.84230508818571,24.97197184915068,0 46.84188889871459,24.97204098623684,0 46.84147154143355,24.97210393433933,0 46.84105310617426,24.97216061203401,0 46.84063368276809,24.97221110076304,0 46.84021336104662,24.97225523766728,0 46.83979232067298,24.97229318562017,0 46.8393706514786,24.97232478176095,0 46.83894853312661,24.97235010752762,0 46.83852596561694,24.972369081491,0 46.83810303878122,24.97238178508702,0 46.8376800221139,24.97238813688465,0 46.83725691561506,24.97238821831788,0 46.8368338989478,24.97238194795371,0 46.83641097211203,24.97236940722425,0 46.83598840460235,24.97235051469428,0 46.83556619641885,24.97232535179434,0 46.83514452722447,24.97229383708708,0 46.83472348685083,24.97225605200114,0 46.83430316512943,24.97221199653064,0 46.83388374172319,24.97216175210232,0 46.83346530646386,24.97210515584169,0 46.83304785935135,24.97204228917339,0 46.8326316698802,24.97197331495505,0 46.83221682788199,24.97189807030908,0 46.83180342318821,24.97181663665771,0 46.83139145579892,24.97172901398871,0 46.83126102041971,24.97169676622493,0 46.83113256133407,24.97165857378663,0 46.83100634803665,24.97161459953603,0 46.83088273985354,24.97156492490066,0 46.83076200627934,24.97150963130752,0 46.8306445964717,24.97144896305079,0 46.83053060026219,24.97138300155655,0 46.83042046680832,24.97131190968434,0 46.83031437577327,24.97123593172735,0 46.83021259665163,24.97115514911066,0 46.83011548876939,24.97106988756153,0 46.8300232317897,24.97098030993907,0 46.82993609520717,24.97088657910258,0 46.82985425868479,24.97078902077984,0 46.82977790188564,24.97068787926498,0 46.82970720447275,24.97058339885286,0 46.82964243594082,24.97047574240395,0 46.82958377595275,24.97036539851776,0 46.82953122450859,24.97025244862185,0 46.82948505110298,24.97013721844813,0 46.82944534556743,24.9700200337296,0 46.82941219773344,24.96990122020072,0 46.82938560760102,24.96978102216152,0 46.82936575483323,24.96965976534869,0 46.82935272926165,24.9695377754996,0 46.82934635122314,24.96941537835319,0 46.82934689021231,24.96929273677897,0 46.82935416656606,24.9691704208244,0 46.82936827011602,24.96904851192559,0 46.82938381097054,24.96891487618044,0 46.82939279412333,24.96878075167597,0 46.82939503991152,24.96864646415376,0 46.82939072799814,24.96851217648501,0 46.82937967872017,24.96837821441345,0 46.82936207174063,24.96824482224845,0 46.8293378172279,24.9681122443001,0 46.8293070948452,24.96798088775215,0 46.82926981476091,24.96785083404485,0 46.82922615663809,24.96772240892791,0 46.82917612047677,24.96759593815213,0 46.8291199757715,24.96747166603352,0 46.82905763269084,24.96734975545171,0 46.82898936072922,24.96723053216074,0 46.82891524971833,24.96711415904198,0 46.82883547932107,24.967000961851,0 46.82875013936905,24.96689110347038,0 46.82865940952537,24.96678490965704,0 46.82856355928458,24.96668246185765,0 46.8215434050022,24.959522224386,0 46.82144701577221,24.95941895612231,0 46.82135592660239,24.9593116971163,0 46.82127058665044,24.95920069168374,0 46.82119099591628,24.95908618414076,0 46.82111733406298,24.95896841880394,0 46.82104987058512,24.95884772143324,0 46.82098860548274,24.95872433634691,0 46.82093389808191,24.95859842642164,0 46.82088565855114,24.9584703988625,0 46.82084397672196,24.95834041654782,0 46.82080912208896,24.95820880524235,0 46.82078109465211,24.95807589071169,0 46.82075989441136,24.95794191728048,0 46.82074561119835,24.95780721071689,0 46.8207382450131,24.95767201534771,0 46.8207378856869,24.95753673838695,0 46.82074453322006,24.95740154272075,0 46.82075800794933,24.95726675412251,0 46.82077848953778,24.95713269836732,0 46.82080579832238,24.95699961978803,0 46.82084002413472,24.95686792560546,0 46.82305401198398,24.9491319279632,0 46.82310449730292,24.94894500308455,0 46.82314941306713,24.94875693763718,0 46.82318866944505,24.94856781306479,0 46.8232221766052,24.94837779226091,0 46.82325002437897,24.94818695667083,0 46.82327212293498,24.94799555063891,0 46.82328847227311,24.94780365561213,0 46.8232990723935,24.94761143448772,0 46.82337111727927,24.94581341940016,0 
						</coordinates>
					</LinearRing>
				</outerBoundaryIs>
			</Polygon>
		</MultiGeometry>
	</Placemark>
</Document>
</kml>
